[{"OBJECT_NAME":"PODSAT","OBJECT_ID":"2018-023B","EPOCH":"2026-03-09T02:47:19.180608","MEAN_MOTION":8.4047949,"ECCENTRICITY":0.35697719,"INCLINATION":26.8348,"RA_OF_ASC_NODE":345.6118,"ARG_OF_PERICENTER":103.7574,"MEAN_ANOMALY":297.8085,"EPHEMERIS_TYPE":0,"CLASSIFICATION_TYPE":"U","NORAD_CAT_ID":43229,"ELEMENT_SET_NO":999,"REV_AT_EPOCH":18426,"BSTAR":0.00083539766,"MEAN_MOTION_DOT":0.00108316,"MEAN_MOTION_DDOT":-2.41852e-7},{"OBJECT_NAME":"OBJECT U","OBJECT_ID":"2017-042U","EPOCH":"2026-03-09T22:07:56.164512","MEAN_MOTION":15.00675308,"ECCENTRICITY":0.00148173,"INCLINATION":97.4238,"RA_OF_ASC_NODE":229.7372,"ARG_OF_PERICENTER":56.7191,"MEAN_ANOMALY":303.5451,"EPHEMERIS_TYPE":0,"CLASSIFICATION_TYPE":"U","NORAD_CAT_ID":42843,"ELEMENT_SET_NO":999,"REV_AT_EPOCH":47173,"BSTAR":0.00030670501,"MEAN_MOTION_DOT":3.834e-5,"MEAN_MOTION_DDOT":0}]
